0 IRIDIUM 166
1 43570U 18061B   24265.16896453  .00000533  00000-0  18337-3 0  9992
2 43570  86.3979 321.7129 0002174 100.7312 259.4128 14.34220032322522
0 IRIDIUM 158
1 43571U 18061C   24265.20700773  .00000337  00000-0  11329-3 0  9993
2 43571  86.3979 321.7065 0002122  98.6773 261.4663 14.34214213322500
0 IRIDIUM 165
1 43572U 18061D   24265.16262269  .00000645  00000-0  22313-3 0  9999
2 43572  86.3981 321.7593 0002301  96.0097 264.1361 14.34211488322517
0 IRIDIUM 155
1 43573U 18061E   24265.19433684  .00000622  00000-0  21517-3 0  9994
2 43573  86.3979 321.6467 0002111  98.4181 261.7254 14.34218994322493
0 IRIDIUM 154
1 43574U 18061F   24265.17530693  .00000648  00000-0  22439-3 0  9993
2 43574  86.3982 321.7569 0002206  90.4810 269.6639 14.34219577322535
0 IRIDIUM 163
1 43575U 18061G   24265.15627826  .00000335  00000-0  11247-3 0  9995
2 43575  86.3979 321.7002 0002096  94.2859 265.8576 14.34219595322501
0 IRIDIUM 156
1 43576U 18061H   24265.20066584  .00000283  00000-0  93838-4 0  9999
2 43576  86.3976 321.6881 0002221 102.4595 257.6849 14.34214894322499
0 IRIDIUM 164
1 43577U 18061J   24265.39095670  .00000580  00000-0  20005-3 0  9993
2 43577  86.3984 321.6393 0002338  91.8592 268.2871 14.34218122322574
